GPS BIIR-2  (PRN 13)    
1 24876C 97035A   23082.69312500 -.00000000  00000-0  00000-0 0   826
2 24876  55.5540 144.7736 0066191  51.5639  40.1676  2.00564021    12
GPS BIIR-4  (PRN 20)    
1 26360C 00025A   23082.69312500 -.00000000  00000-0  00000-0 0   829
2 26360  54.2940  67.3565 0043777 197.2060 342.2999  2.00551516    12
GPS BIIR-8  (PRN 16)    
1 27663C 03005A   23082.69312500  .00000000  00000-0  00000-0 0   826
2 27663  55.3363 261.9592 0132388  44.0281 112.4000  2.00575911    18
GPS BIIR-9  (PRN 21)    
1 27704C 03010A   23082.69312500 -.00000000  00000-0  00000-0 0   829
2 27704  55.0977  12.0148 0249734 314.2241  60.7399  2.00567696    13
GPS BIIR-11 (PRN 19)    
1 28190C 04009A   23082.69312500  .00000000  00000-0  00000-0 0   827
2 28190  55.8163 322.9994 0090441 130.2916 183.9773  2.00571154    12
GPS BIIR-13 (PRN 02)    
1 28474C 04045A   23082.69312500 -.00000000  00000-0  00000-0 0   823
2 28474  55.4228  12.2613 0200971 284.3693 239.4295  2.00562940    15
GPS BIIRM-1 (PRN 17)    
1 28874C 05038A   23082.69312500  .00000000  00000-0  00000-0 0   829
2 28874  55.8724 320.4446 0138031 278.9032  61.1878  2.00556832    15
GPS BIIRM-2 (PRN 31)    
1 29486C 06042A   23082.69312500  .00000000  00000-0  00000-0 0   825
2 29486  54.6909 198.1825 0105045  28.7849 223.9528  2.00503575    10
GPS BIIRM-3 (PRN 12)    
1 29601C 06052A   23082.69312500  .00000000  00000-0  00000-0 0   825
2 29601  55.3515 260.9097 0087075  77.1287 216.7847  2.00568076    16
GPS BIIRM-4 (PRN 15)    
1 32260C 07047A   23082.69312500 -.00000000  00000-0  00000-0 0   826
2 32260  53.4022 128.9649 0145449  67.5250   8.8366  2.00560605    18
GPS BIIRM-5 (PRN 29)    
1 32384C 07062A   23082.69312500  .00000000  00000-0  00000-0 0   829
2 32384  55.9997 321.2427 0021667 141.1744  64.2159  2.00576905    13
GPS BIIRM-6 (PRN 07)    
1 32711C 08012A   23082.69312500  .00000000  00000-0  00000-0 0   829
2 32711  54.4561 197.0535 0171403 233.6927 262.2188  2.00553031    18
GPS BIIRM-8 (PRN 05)    
1 35752C 09043A   23082.69312500 -.00000000  00000-0  00000-0 0   823
2 35752  55.2972  74.3054 0056039  63.6351  86.8451  2.00568320    13
GPS BIIF-1  (PRN 25)    
1 36585C 10022A   23082.69312500  .00000000  00000-0  00000-0 0   826
2 36585  54.6442 256.2367 0109775  59.1007 210.3311  2.00553625    16
GPS BIIF-2  (PRN 01)    
1 37753C 11036A   23082.69312500 -.00000000  00000-0  00000-0 0   821
2 37753  56.7070  17.8497 0123909  53.4230 297.5272  2.00567163    14
GPS BIIF-3  (PRN 24)    
1 38833C 12053A   23082.69312500  .00000000  00000-0  00000-0 0   820
2 38833  53.5145 191.9222 0135947  50.3300 313.6893  2.00564928    16
GPS BIIF-4  (PRN 27)    
1 39166C 13023A   23082.69312500  .00000000  00000-0  00000-0 0   828
2 39166  55.4909 316.7069 0113328  40.0712  65.2442  2.00564924    19
GPS BIIF-5  (PRN 30)    
1 39533C 14008A   23082.69312500  .00000000  00000-0  00000-0 0   820
2 39533  53.6038 197.4598 0064004 211.1664 252.1072  2.00569171    19
GPS BIIF-6  (PRN 06)    
1 39741C 14026A   23082.69312500 -.00000000  00000-0  00000-0 0   822
2 39741  56.6632  17.3734 0030666 311.6066 311.9007  2.00568905    10
GPS BIIF-7  (PRN 09)    
1 40105C 14045A   23082.69312500 -.00000000  00000-0  00000-0 0   829
2 40105  54.7623 135.6499 0021816 115.3646  81.3804  2.00566145    14
GPS BIIF-8  (PRN 03)    
1 40294C 14068A   23082.69312500 -.00000000  00000-0  00000-0 0   823
2 40294  56.0403  76.9250 0043874  55.9112 232.9460  2.00560789    11
GPS BIIF-9  (PRN 26)    
1 40534C 15013A   23082.69312500  .00000000  00000-0  00000-0 0   820
2 40534  53.5433 253.1160 0077870  24.9626 168.0537  2.00565100    17
GPS BIIF-10 (PRN 08)    
1 40730C 15033A   23082.69312500  .00000000  00000-0  00000-0 0   820
2 40730  54.9827 315.4008 0083652  12.1981  65.0831  2.00563792    16
GPS BIIF-11 (PRN 10)    
1 41019C 15062A   23082.69312500 -.00000000  00000-0  00000-0 0   824
2 41019  56.0260  76.7723 0086221 221.8900 175.2132  2.00562461    17
GPS BIIF-12 (PRN 32)    
1 41328C 16007A   23082.69312500 -.00000000  00000-0  00000-0 0   827
2 41328  54.9718 136.3886 0069575 233.3661 100.5958  2.00557530    11
GPS BIII-1  (PRN 04)    
1 43873C 18109A   23082.69312500 -.00000000  00000-0  00000-0 0   829
2 43873  55.1490 138.8684 0023913 193.6032  30.7765  2.00560696    14
GPS BIII-2  (PRN 18)    
1 44506C 19056A   23082.69312500 -.00000000  00000-0  00000-0 0   825
2 44506  55.7828  17.9606 0030296 185.2629 300.0907  2.00562678    14
GPS BIII-3  (PRN 23)    
1 45854C 20041A   23082.69312500 -.00000000  00000-0  00000-0 0   828
2 45854  55.7465  75.2324 0030536 187.3948 240.4452  2.00566455    15
GPS BIII-4  (PRN 14)    
1 46826C 20078A   23082.69312500  .00000000  00000-0  00000-0 0   827
2 46826  54.3978 258.7529 0028760 188.3185 215.4710  2.00563897    10
GPS BIII-5  (PRN 11)    
1 48859C 21054A   23082.69312500 -.00000000  00000-0  00000-0 0   821
2 48859  55.2962  19.8247 0008694 217.7416   8.9053  2.00558380    18
GPS BIII-6  (PRN 28)    
1 55268C 23009A   23082.69312500  .00000000  00000-0  00000-0 0   824
2 55268  55.0953 194.8711 0006741 100.7138 168.1441  2.00566561    11
